start=new Date('2023-02-09T00:00:00.000Z').valueOf();
sats=[{"COUNTRY_CODE":"US","REF_FRAME":"TEME","OBJECT_TYPE":"PAYLOAD","ELEMENT_SET_NO":"999","GP_ID":"224824962","FILE":"3780324","REV_AT_EPOCH":"3313","RA_OF_ASC_NODE":"95.1676","MEAN_MOTION_DDOT":"0.0000000000000","ARG_OF_PERICENTER":"91.4913","DECAY_DATE":null,"TLE_LINE1":"1 53017U 22076AH  23039.52909351 -.00002723  00000-0 -15309-3 0  9991","INCLINATION":"53.2175","EPOCH":"2023-02-08T12:41:53.679264","EPHEMERIS_TYPE":"0","MEAN_ANOMALY":"268.6274","TLE_LINE2":"2 53017  53.2175  95.1676 0001699  91.4913 268.6274 15.08829023 33130","APOAPSIS":"540.954","MEAN_ELEMENT_THEORY":"SGP4","RCS_SIZE":"LARGE","MEAN_MOTION":"15.08829023","TIME_SYSTEM":"UTC","SEMIMAJOR_AXIS":"6917.914","OBJECT_ID":"2022-076AH","CENTER_NAME":"EARTH","BSTAR":"-0.00015309000000","MEAN_MOTION_DOT":"-0.00002723","OBJECT_NAME":"STARLINK-4281","PERIOD":"95.438","NORAD_CAT_ID":"53017","LAUNCH_DATE":"2022-07-07","ECCENTRICITY":"0.00016990","SITE":"AFETR","PERIAPSIS":"538.604","CLASSIFICATION_TYPE":"U"},{"DECAY_DATE":null,"ARG_OF_PERICENTER":"82.4075","MEAN_MOTION_DDOT":"0.0000000000000","TLE_LINE1":"1 53018U 22076AJ  23039.47483824  .00000616  00000-0  56798-4 0  9993","INCLINATION":"53.2151","GP_ID":"224823711","REV_AT_EPOCH":"3311","FILE":"3780324","ELEMENT_SET_NO":"999","RA_OF_ASC_NODE":"95.4093","COUNTRY_CODE":"US","REF_FRAME":"TEME","OBJECT_TYPE":"PAYLOAD","LAUNCH_DATE":"2022-07-07","PERIOD":"95.437","NORAD_CAT_ID":"53018","CLASSIFICATION_TYPE":"U","PERIAPSIS":"538.565","ECCENTRICITY":"0.00016830","SITE":"AFETR","MEAN_MOTION_DOT":"0.00000616","OBJECT_NAME":"STARLINK-4279","MEAN_ELEMENT_THEORY":"SGP4","APOAPSIS":"540.894","RCS_SIZE":"LARGE","TLE_LINE2":"2 53018  53.2151  95.4093 0001683  82.4075 277.7108 15.08845235 33111","SEMIMAJOR_AXIS":"6917.864","CENTER_NAME":"EARTH","OBJECT_ID":"2022-076AJ","BSTAR":"0.00005679800000","MEAN_MOTION":"15.08845235","TIME_SYSTEM":"UTC","EPHEMERIS_TYPE":"0","EPOCH":"2023-02-08T11:23:46.023936","MEAN_ANOMALY":"277.7108"},{"MEAN_MOTION_DDOT":"0.0000000000000","ARG_OF_PERICENTER":"78.5838","DECAY_DATE":null,"INCLINATION":"53.2180","TLE_LINE1":"1 53019U 22076AK  23039.85291922  .00000399  00000-0  43156-4 0  9994","ELEMENT_SET_NO":"999","FILE":"3780893","REV_AT_EPOCH":"3317","GP_ID":"224859774","RA_OF_ASC_NODE":"93.7149","COUNTRY_CODE":"US","OBJECT_TYPE":"PAYLOAD","REF_FRAME":"TEME","NORAD_CAT_ID":"53019","PERIOD":"95.437","LAUNCH_DATE":"2022-07-07","SITE":"AFETR","ECCENTRICITY":"0.00012420","CLASSIFICATION_TYPE":"U","PERIAPSIS":"538.856","MEAN_MOTION_DOT":"0.00000399","OBJECT_NAME":"STARLINK-4282","TLE_LINE2":"2 53019  53.2180  93.7149 0001242  78.5838 281.5294 15.08849905 33174","RCS_SIZE":"LARGE","APOAPSIS":"540.574","MEAN_ELEMENT_THEORY":"SGP4","TIME_SYSTEM":"UTC","MEAN_MOTION":"15.08849905","BSTAR":"0.00004315600000","OBJECT_ID":"2022-076AK","SEMIMAJOR_AXIS":"6917.850","CENTER_NAME":"EARTH","EPOCH":"2023-02-08T20:28:12.220608","EPHEMERIS_TYPE":"0","MEAN_ANOMALY":"281.5294"},{"OBJECT_NAME":"STARLINK-4287","MEAN_MOTION_DOT":"0.00000041","CLASSIFICATION_TYPE":"U","PERIAPSIS":"538.647","SITE":"AFETR","ECCENTRICITY":"0.00015890","LAUNCH_DATE":"2022-07-07","NORAD_CAT_ID":"53020","PERIOD":"95.438","MEAN_ANOMALY":"272.5944","EPHEMERIS_TYPE":"0","EPOCH":"2023-02-08T12:52:28.919712","BSTAR":"0.00002064600000","SEMIMAJOR_AXIS":"6917.881","OBJECT_ID":"2022-076AL","CENTER_NAME":"EARTH","TIME_SYSTEM":"UTC","MEAN_MOTION":"15.08839880","RCS_SIZE":"LARGE","APOAPSIS":"540.845","MEAN_ELEMENT_THEORY":"SGP4","TLE_LINE2":"2 53020  53.2162  95.1363 0001589  87.5230 272.5944 15.08839880 33128","INCLINATION":"53.2162","TLE_LINE1":"1 53020U 22076AL  23039.53644583  .00000041  00000-0  20646-4 0  9999","DECAY_DATE":null,"MEAN_MOTION_DDOT":"0.0000000000000","ARG_OF_PERICENTER":"87.5230","OBJECT_TYPE":"PAYLOAD","REF_FRAME":"TEME","COUNTRY_CODE":"US","RA_OF_ASC_NODE":"95.1363","FILE":"3780324","REV_AT_EPOCH":"3312","GP_ID":"224824713","ELEMENT_SET_NO":"999"},{"CLASSIFICATION_TYPE":"U","PERIAPSIS":"538.784","ECCENTRICITY":"0.00013790","SITE":"AFETR","LAUNCH_DATE":"2022-07-07","PERIOD":"95.437","NORAD_CAT_ID":"53021","OBJECT_NAME":"STARLINK-4203","MEAN_MOTION_DOT":"0.00000377","SEMIMAJOR_AXIS":"6917.873","OBJECT_ID":"2022-076AM","CENTER_NAME":"EARTH","BSTAR":"0.00004174700000","MEAN_MOTION":"15.08842523","TIME_SYSTEM":"UTC","APOAPSIS":"540.692","MEAN_ELEMENT_THEORY":"SGP4","RCS_SIZE":"LARGE","TLE_LINE2":"2 53021  53.2171  93.7483 0001379  78.1105 282.0041 15.08842523 33177","MEAN_ANOMALY":"282.0041","EPHEMERIS_TYPE":"0","EPOCH":"2023-02-08T20:17:36.460032","TLE_LINE1":"1 53021U 22076AM  23039.84556088  .00000377  00000-0  41747-4 0  9993","INCLINATION":"53.2171","DECAY_DATE":null,"MEAN_MOTION_DDOT":"0.0000000000000","ARG_OF_PERICENTER":"78.1105","RA_OF_ASC_NODE":"93.7483","GP_ID":"224860776","FILE":"3780893","REV_AT_EPOCH":"3317","ELEMENT_SET_NO":"999","REF_FRAME":"TEME","OBJECT_TYPE":"PAYLOAD","COUNTRY_CODE":"US"},{"LAUNCH_DATE":"2022-07-07","NORAD_CAT_ID":"53022","PERIOD":"95.437","PERIAPSIS":"538.697","CLASSIFICATION_TYPE":"U","SITE":"AFETR","ECCENTRICITY":"0.00014820","MEAN_MOTION_DOT":"-0.00000625","OBJECT_NAME":"STARLINK-4216","RCS_SIZE":"LARGE","MEAN_ELEMENT_THEORY":"SGP4","APOAPSIS":"540.747","TLE_LINE2":"2 53022  53.2176  93.6968 0001482  84.5722 275.5439 15.08847578 33174","BSTAR":"-0.00002117200000","CENTER_NAME":"EARTH","SEMIMAJOR_AXIS":"6917.857","OBJECT_ID":"2022-076AN","TIME_SYSTEM":"UTC","MEAN_MOTION":"15.08847578","EPHEMERIS_TYPE":"0","EPOCH":"2023-02-08T20:33:30.450816","MEAN_ANOMALY":"275.5439","DECAY_DATE":null,"MEAN_MOTION_DDOT":"0.0000000000000","ARG_OF_PERICENTER":"84.5722","INCLINATION":"53.2176","TLE_LINE1":"1 53022U 22076AN  23039.85660244 -.00000625  00000-0 -21172-4 0  9993","FILE":"3780893","REV_AT_EPOCH":"3317","GP_ID":"224859524","ELEMENT_SET_NO":"999","RA_OF_ASC_NODE":"93.6968","COUNTRY_CODE":"US","OBJECT_TYPE":"PAYLOAD","REF_FRAME":"TEME"},{"OBJECT_NAME":"STARLINK-4284","MEAN_MOTION_DOT":"0.00038930","PERIAPSIS":"538.916","CLASSIFICATION_TYPE":"U","SITE":"AFETR","ECCENTRICITY":"0.00011230","LAUNCH_DATE":"2022-07-07","NORAD_CAT_ID":"53023","PERIOD":"95.436","MEAN_ANOMALY":"257.1426","EPHEMERIS_TYPE":"0","EPOCH":"2023-02-08T12:10:04.978848","BSTAR":"0.00244950000000","CENTER_NAME":"EARTH","SEMIMAJOR_AXIS":"6917.828","OBJECT_ID":"2022-076AP","TIME_SYSTEM":"UTC","MEAN_MOTION":"15.08857083","RCS_SIZE":"LARGE","MEAN_ELEMENT_THEORY":"SGP4","APOAPSIS":"540.470","TLE_LINE2":"2 53023  53.2181  95.2513 0001123 102.9691 257.1426 15.08857083 33597","INCLINATION":"53.2181","TLE_LINE1":"1 53023U 22076AP  23039.50700207  .00038930  00000-0  24495-2 0  9997","DECAY_DATE":null,"MEAN_MOTION_DDOT":"0.0000000000000","ARG_OF_PERICENTER":"102.9691","OBJECT_TYPE":"PAYLOAD","REF_FRAME":"TEME","COUNTRY_CODE":"US","RA_OF_ASC_NODE":"95.2513","FILE":"3780521","REV_AT_EPOCH":"3359","GP_ID":"224831787","ELEMENT_SET_NO":"999"},{"TLE_LINE1":"1 53024U 22076AQ  23039.37820011 -.00000759  00000-0 -29560-4 0  9999","INCLINATION":"53.2176","DECAY_DATE":null,"MEAN_MOTION_DDOT":"0.0000000000000","ARG_OF_PERICENTER":"140.1189","RA_OF_ASC_NODE":"95.8317","GP_ID":"224824214","FILE":"3780324","REV_AT_EPOCH":"3310","ELEMENT_SET_NO":"999","REF_FRAME":"TEME","OBJECT_TYPE":"PAYLOAD","COUNTRY_CODE":"US","PERIAPSIS":"538.396","CLASSIFICATION_TYPE":"U","SITE":"AFETR","ECCENTRICITY":"0.00019400","LAUNCH_DATE":"2022-07-07","PERIOD":"95.437","NORAD_CAT_ID":"53024","OBJECT_NAME":"STARLINK-4289","MEAN_MOTION_DOT":"-0.00000759","OBJECT_ID":"2022-076AQ","SEMIMAJOR_AXIS":"6917.873","CENTER_NAME":"EARTH","BSTAR":"-0.00002956000000","MEAN_MOTION":"15.08842467","TIME_SYSTEM":"UTC","MEAN_ELEMENT_THEORY":"SGP4","APOAPSIS":"541.080","RCS_SIZE":"LARGE","TLE_LINE2":"2 53024  53.2176  95.8317 0001940 140.1189 219.9946 15.08842467 33103","MEAN_ANOMALY":"219.9946","EPHEMERIS_TYPE":"0","EPOCH":"2023-02-08T09:04:36.489504"},{"MEAN_ANOMALY":"271.4688","EPOCH":"2023-02-08T12:04:47.000064","EPHEMERIS_TYPE":"0","MEAN_MOTION":"15.08844544","TIME_SYSTEM":"UTC","OBJECT_ID":"2022-076AR","SEMIMAJOR_AXIS":"6917.866","CENTER_NAME":"EARTH","BSTAR":"0.00007077800000","TLE_LINE2":"2 53025  53.2168  95.2890 0001547  88.6481 271.4688 15.08844544 33125","APOAPSIS":"540.802","MEAN_ELEMENT_THEORY":"SGP4","RCS_SIZE":"LARGE","OBJECT_NAME":"STARLINK-4218","MEAN_MOTION_DOT":"0.00000839","SITE":"AFETR","ECCENTRICITY":"0.00015470","CLASSIFICATION_TYPE":"U","PERIAPSIS":"538.661","PERIOD":"95.437","NORAD_CAT_ID":"53025","LAUNCH_DATE":"2022-07-07","REF_FRAME":"TEME","OBJECT_TYPE":"PAYLOAD","COUNTRY_CODE":"US","RA_OF_ASC_NODE":"95.2890","ELEMENT_SET_NO":"999","GP_ID":"224824963","REV_AT_EPOCH":"3312","FILE":"3780324","TLE_LINE1":"1 53025U 22076AR  23039.50332176  .00000839  00000-0  70778-4 0  9999","INCLINATION":"53.2168","MEAN_MOTION_DDOT":"0.0000000000000","ARG_OF_PERICENTER":"88.6481","DECAY_DATE":null},{"PERIOD":"95.438","NORAD_CAT_ID":"53026","LAUNCH_DATE":"2022-07-07","ECCENTRICITY":"0.00014960","SITE":"AFETR","CLASSIFICATION_TYPE":"U","PERIAPSIS":"538.715","MEAN_MOTION_DOT":"-0.00002178","OBJECT_NAME":"STARLINK-4119","TLE_LINE2":"2 53026  53.2157  93.7328 0001496  91.1514 268.9649 15.08838551 33176","APOAPSIS":"540.785","MEAN_ELEMENT_THEORY":"SGP4","RCS_SIZE":"LARGE","MEAN_MOTION":"15.08838551","TIME_SYSTEM":"UTC","SEMIMAJOR_AXIS":"6917.885","OBJECT_ID":"2022-076AS","CENTER_NAME":"EARTH","BSTAR":"-0.00011877000000","EPOCH":"2023-02-08T20:22:54.629760","EPHEMERIS_TYPE":"0","MEAN_ANOMALY":"268.9649","MEAN_MOTION_DDOT":"0.0000000000000","ARG_OF_PERICENTER":"91.1514","DECAY_DATE":null,"TLE_LINE1":"1 53026U 22076AS  23039.84924340 -.00002178  00000-0 -11877-3 0  9991","INCLINATION":"53.2157","ELEMENT_SET_NO":"999","GP_ID":"224859025","FILE":"3780893","REV_AT_EPOCH":"3317","RA_OF_ASC_NODE":"93.7328","COUNTRY_CODE":"US","REF_FRAME":"TEME","OBJECT_TYPE":"PAYLOAD"}];
